ORBCOMM FM103           
1 40091U 14040F   24218.87821232  .00001444  00000+0  35640-3 0  9996
2 40091  47.0064  65.5715 0002337 266.7479  93.3138 14.56830115535163
ORBCOMM FM114           
1 41179U 15081A   24218.63380984  .00002438  00000+0  57580-3 0  9999
2 41179  47.0036 335.9432 0002302 306.0339  54.0332 14.56849072458431
ORBCOMM FM119           
1 41180U 15081B   24218.81429795  .00001170  00000+0  29589-3 0  9995
2 41180  46.9996 244.3172 0001235 354.3442   5.7429 14.56809457459710
ORBCOMM FM105           
1 41181U 15081C   24218.70051348  .00000599  00000+0  21700-3 0  9990
2 41181  47.0000 219.7827 0002380 325.6262  34.4463 14.44510616455126
ORBCOMM FM110           
1 41182U 15081D   24218.74853631  .00002576  00000+0  60545-3 0  9997
2 41182  47.0025 334.8066 0001976 190.9671 169.1171 14.56909583458320
ORBCOMM FM118           
1 41183U 15081E   24218.65766114  .00002147  00000+0  51106-3 0  9994
2 41183  47.0049 335.5627 0002107 183.7600 176.3269 14.56905589458417
ORBCOMM FM113           
1 41185U 15081G   24218.21971595  .00001595  00000+0  38985-3 0  9995
2 41185  46.9998 246.5999 0001432 339.1990  20.8836 14.56815641459550
